SWARM A                 
1 39452U 13067B   26165.83231833  .00009931  00000+0  17095-3 0  9997
2 39452  87.3332  57.1172 0003009  94.9146 265.2458 15.50914358705880
SWARM C                 
1 39453U 13067C   26165.83220381  .00009929  00000+0  17093-3 0  9999
2 39453  87.3331  55.6983 0003004  95.3216 264.8388 15.50911896705848
BRITE-CA1 (TORONTO)     
1 40020U 14033L   26165.86355865  .00000624  00000+0  10163-3 0  9998
2 40020  97.9736 294.8343 0077259 284.5903  74.6746 14.72673826641879
OCO 2                   
1 40059U 14035A   26165.82071514  .00000339  00000+0  85377-4 0  9997
2 40059  98.2018 107.1497 0001499  86.2906 273.8464 14.57109507635705
BRITE-PL2 (HEWELIUSZ)   
1 40119U 14049B   26165.82912721  .00001407  00000+0  13529-3 0  9999
2 40119  97.9095 277.8109 0015212 115.4686 244.8109 14.94586451641097
MMS 1                   
1 40482U 15011A   26165.91670139 -.00000574  00000+0  00000+0 0  9997
2 40482  72.1685 348.7911 8322175 167.3590  66.9565  0.28371600  1398
MMS 2                   
1 40483U 15011B   26165.91670139 -.00000574  00000+0  00000+0 0  9998
2 40483  72.1686 348.7933 8322957 167.3646  66.9451  0.28371627  1397
MMS 3                   
1 40484U 15011C   26165.91670139 -.00000574  00000+0  00000+0 0  9999
2 40484  72.1717 348.7978 8322139 167.3591  66.9409  0.28371592  1397
MMS 4                   
1 40485U 15011D   26165.91670139 -.00000573  00000+0  00000+0 0  9999
2 40485  72.1678 348.7936 8321749 167.3669  66.9293  0.28371592  1391
ASTROSAT                
1 40930U 15052A   26165.73690292  .00001447  00000+0  94400-4 0  9993
2 40930   5.9956 172.9911 0007959 355.8728   4.1334 14.82503562579473
DAMPE                   
1 41173U 15078A   26165.81515628  .00001015  00000+0  36656-4 0  9999
2 41173  97.4552 171.2701 0013831  84.7377 275.5442 15.30779099584186
PISAT                   
1 41784U 16059B   26165.75996178  .00000747  00000+0  13485-3 0  9998
2 41784  97.8179 166.3170 0028186 210.7259 149.2298 14.68979729519385
HXMT (HUIYAN)           
1 42758U 17034A   26165.56897872  .00003135  00000+0  15926-3 0  9990
2 42758  43.0126 197.6204 0030331 130.0289 230.3228 15.18464729497261
FLYING LAPTOP           
1 42831U 17042G   26165.85249463  .00003316  00000+0  26239-3 0  9990
2 42831  97.4671 321.4751 0019511 129.3189 230.9769 15.01133419486100
ZHANGHENG 1-01 (CSES-1) 
1 43194U 18015C   26165.83610420  .00006120  00000+0  28001-3 0  9992
2 43194  97.6862 331.4468 0017032 275.2897  84.6395 15.20785225464289
SALSAT                  
1 46495U 20068K   26165.52910375  .00006973  00000+0  24454-3 0  9992
2 46495  97.8843 168.4319 0008235 319.4661  40.5964 15.29765944314951
IXPE                    
1 49954U 21121A   26165.83339119  .00013634  00000+0  75301-3 0  9990
2 49954   0.2315 335.2126 0007123  45.5815  36.1998 15.10230792  5828
SMILE                   
1 69123U 26109A   26144.65318427 -.00001976  00000+0 -42379-3 0  9994
2 69123  70.0007 229.2745 0009123 259.5159 100.4951 14.57062785   802
